IRIDIUM 7               
1 24793U 97020B   24294.50213406  .00001601  00000+0  55009-3 0  9994
2 24793  86.3902 277.3171 0002304  95.7170 264.4289 14.35514797437501
IRIDIUM 5               
1 24795U 97020D   24294.76468142  .00012146  00000+0  10996-2 0  9994
2 24795  86.3971 193.7258 0113764 275.9313  82.8956 14.90397008449781
IRIDIUM 4               
1 24796U 97020E   24294.91586507  .00001368  00000+0  46034-3 0  9995
2 24796  86.3900 274.1745 0002200  89.5608 270.5841 14.36434041438110
IRIDIUM 914             
1 24836U 97030A   24294.88566828  .00001730  00000+0  53966-3 0  9996
2 24836  86.3875 283.5152 0000962  46.7726 313.3553 14.40351208572675
IRIDIUM 16              
1 24841U 97030F   24294.55867276  .00001529  00000+0  49714-3 0  9999
2 24841  86.3987 305.9778 0004164 111.2452 248.9191 14.38235765432559
IRIDIUM 911             
1 24842U 97030G   24294.56319140  .00002033  00000+0  55339-3 0  9994
2 24842  86.4411 304.9875 0014587 167.6353 192.5211 14.46982665440424
IRIDIUM 17              
1 24870U 97034B   24294.67606127  .00001477  00000+0  48847-3 0  9992
2 24870  86.3969 335.5026 0003816  86.5397 273.6237 14.37350695429170
IRIDIUM 920             
1 24871U 97034C   24294.57023684  .00001453  00000+0  44549-3 0  9992
2 24871  86.3945 315.3267 0012791 143.7557 216.4512 14.41042505432060
